NOAA 1                  
1 04793U 70106A   25312.56863715 -.00000024  00000+0  11843-3 0  9997
2 04793 101.3718 351.6267 0031792  59.9181  96.7417 12.54046554513033
NOAA 2 (ITOS-D)         
1 06235U 72082A   25312.49742119 -.00000028  00000+0  11455-3 0  9994
2 06235 102.0217 323.5569 0003905 229.5936 286.7385 12.53206983427301
NOAA 3                  
1 06920U 73086A   25312.27765635 -.00000041  00000+0  36829-4 0  9992
2 06920 102.2927 319.0911 0006449 170.0930 201.5443 12.40387699354515
NOAA 4                  
1 07529U 74089A   25312.28413953 -.00000043  00000+0  24666-4 0  9994
2 07529 102.0081 317.7366 0008786 258.2638 112.3086 12.53198132331859
NOAA 5                  
1 09057U 76077A   25312.46214257 -.00000042  00000+0  26800-4 0  9998
2 09057 102.2791 292.4391 0010110  23.8662  96.9948 12.37823809227161
TIROS N                 
1 11060U 78096A   25312.83882964  .00000291  00000+0  15833-3 0  9993
2 11060  98.4748 338.6740 0010911 155.7012 204.4681 14.19267682647495
NOAA 6                  
1 11416U 79057A   25312.67778987  .00000538  00000+0  20310-3 0  9997
2 11416  98.5879 338.5060 0009731 185.6088 174.4990 14.35312360419323
NOAA 7                  
1 12553U 81059A   25312.62776922  .00000121  00000+0  81043-4 0  9996
2 12553  98.8269  16.5661 0011571 174.1832 185.9480 14.17741247293496
NOAA 8                  
1 13923U 83022A   25312.48427998  .00000240  00000+0  11110-3 0  9999
2 13923  98.7386 319.9048 0014758 179.9510 180.1675 14.29702344219536
NOAA 9                  
1 15427U 84123A   25312.78342241  .00000194  00000+0  11994-3 0  9991
2 15427  99.1181 329.1164 0013698 253.0489 280.6467 14.16984595112205
NOAA 10                 
1 16969U 86073A   25312.50310720  .00000247  00000+0  11504-3 0  9992
2 16969  98.6892 301.2477 0011010 283.3889 201.2193 14.29077737 37895
NOAA 11                 
1 19531U 88089A   25312.79774118  .00000117  00000+0  81086-4 0  9994
2 19531  98.5916 261.0348 0010456 205.5852 154.4806 14.15784911916292
NOAA 12                 
1 21263U 91032A   25312.77568938  .00000208  00000+0  10413-3 0  9996
2 21263  98.6027 299.7796 0012870 316.0261  43.9895 14.26665492793534
NOAA 13                 
1 22739U 93050A   25312.82752054  .00000218  00000+0  13838-3 0  9992
2 22739  98.6760 259.0624 0010249  42.8711 317.3260 14.13583533662246
NOAA 14                 
1 23455U 94089A   25312.80566226  .00000107  00000+0  76965-4 0  9991
2 23455  98.4843 287.9058 0009533   3.9696 356.1553 14.14620892592044
NOAA 15                 
1 25338U 98030A   25312.82391784  .00000243  00000+0  11745-3 0  9995
2 25338  98.5254 334.2293 0009105 273.7365  86.2774 14.27049489429861
NOAA 16                 
1 26536U 00055A   25312.79811840  .00000148  00000+0  99638-4 0  9994
2 26536  98.4780 333.5807 0009837 208.8034 151.2598 14.13853797592589
NOAA 17                 
1 27453U 02032A   25312.86281772  .00000395  00000+0  18397-3 0  9999
2 27453  98.8343 271.3678 0010562 271.0279  88.9690 14.26101330215586
NOAA 18                 
1 28654U 05018A   25312.79743236  .00000229  00000+0  14429-3 0  9998
2 28654  98.8323  30.4851 0015057  59.9746 300.2919 14.13663209 55176
NOAA 19                 
1 33591U 09005A   25312.75763065  .00000118  00000+0  86845-4 0  9991
2 33591  98.9809  18.1926 0012807 295.4646  64.5201 14.13424994863340
SUOMI NPP               
1 37849U 11061A   25312.78989360  .00000183  00000+0  10794-3 0  9998
2 37849  98.7717 250.4458 0000475 198.2605 161.8554 14.19540204727171
NOAA 20 (JPSS-1)        
1 43013U 17073A   25312.80466824  .00000177  00000+0  10490-3 0  9991
2 43013  98.7543 249.4818 0001345 135.6465 224.4819 14.19511612413209
NOAA 21 (JPSS-2)        
1 54234U 22150A   25312.76922524  .00000200  00000+0  11573-3 0  9999
2 54234  98.7406 249.5105 0002692  99.1419 261.0062 14.19509228155270
